IRIDIUM 136             
1 42962U 17061H   24206.87077316  .00000108  00000+0  31587-4 0  9997
2 42962  86.3993 314.5704 0002443 100.2938 259.8533 14.34217810355608
